SWIFT                   
1 28485U 04047A   26052.09518321  .00041415  00000+0  52206-3 0  9998
2 28485  20.5548 353.3363 0002602 156.9817 203.0744 15.57755701168677
HINODE (SOLAR-B)        
1 29479U 06041A   26052.01366686  .00000634  00000+0  11779-3 0  9993
2 29479  98.0631  69.8475 0016273 298.8421  61.1151 14.68443610 37824
SHIJIAN-6 02A (SJ-6 02A)
1 29505U 06046A   26052.27143545  .00003756  00000+0  20238-3 0  9991
2 29505  97.6519  92.4951 0003650 154.7067 205.4345 15.15427840 54700
SHIJIAN-6 02B (SJ-6 02B)
1 29506U 06046B   26052.23152866  .00002207  00000+0  17771-3 0  9992
2 29506  97.7025  82.1041 0014192  94.2234 266.0612 15.00907606 53343
FGRST (GLAST)           
1 33053U 08029A   26052.04403423  .00003648  00000+0  13608-3 0  9999
2 33053  25.5823 290.5051 0008753  38.5520 321.5642 15.23192424978100
SDO                     
1 36395U 10005A   26049.08485580 -.00000059  00000+0  00000+0 0  9994
2 36395  34.3980  88.1509 0000568 148.4244 199.9931  1.00275964 58864
CRYOSAT 2               
1 36508U 10013A   26052.22694240  .00000310  00000+0  76234-4 0  9990
2 36508  92.0220 249.2141 0002253  83.2107 276.9356 14.51901034841251
X-SAT                   
1 37389U 11015C   26052.24459479 -.00000051  00000+0 -41275-5 0  9998
2 37389  98.3403  34.8628 0013546 328.1820  31.8541 14.25164407771161
GCOM-W1 (SHIZUKU)       
1 38337U 12025A   26051.84400395  .00000573  00000+0  13722-3 0  9993
2 38337  98.2035 354.1600 0001592  82.1486 340.0132 14.57070584732093
NUSTAR                  
1 38358U 12031A   26052.25002315  .00006636  00000+0  37036-3 0  9999
2 38358   6.0256 182.9866 0008087 192.3536 133.4346 15.07460180  1300
NEOSSAT                 
1 39089U 13009D   26052.11000628  .00000159  00000+0  69694-4 0  9997
2 39089  98.4123 234.9149 0010141 228.5202 131.5114 14.35775603680087
BRITE-AUSTRIA           
1 39091U 13009F   26052.09648243  .00000201  00000+0  82916-4 0  9998
2 39091  98.3938 234.4200 0009425 222.0185 138.0280 14.36485149680381
IRIS                    
1 39197U 13033A   26052.12577476  .00001332  00000+0  15964-3 0  9999
2 39197  97.9399 251.7228 0024145 341.5663  18.4675 14.85586526683141
HISAKI (SPRINT-A)       
1 39253U 13049A   26052.27876357  .00000106  00000+0  55036-4 0  9998
2 39253  29.7195  89.2874 0136715 157.0876 203.5865 13.55528963615684
CASSIOPE                
1 39265U 13055A   26052.20738934  .00041914 -59553-6  51122-3 0  9997
2 39265  80.9175 206.7341 0320703  91.1564 272.6421 15.17384517650031
STSAT-3                 
1 39422U 13066G   26052.22430666  .00001398  00000+0  11121-3 0  9999
2 39422  97.6073  24.1700 0013547  69.1298 291.1376 15.01951490666791
SWARM B                 
1 39451U 13067A   26052.22845654  .00004605  00000+0  16908-3 0  9991
2 39451  87.7470  17.4756 0003542  95.8937 264.2715 15.27679048665533
