[{"OBJECT_NAME":"SWIFT","OBJECT_ID":"2004-047A","EPOCH":"2026-02-21T02:17:03.829344","MEAN_MOTION":15.57755701,"ECCENTRICITY":0.00026028,"INCLINATION":20.5548,"RA_OF_ASC_NODE":353.3363,"ARG_OF_PERICENTER":156.9817,"MEAN_ANOMALY":203.0744,"EPHEMERIS_TYPE":0,"CLASSIFICATION_TYPE":"U","NORAD_CAT_ID":28485,"ELEMENT_SET_NO":999,"REV_AT_EPOCH":16867,"BSTAR":0.00052205713,"MEAN_MOTION_DOT":0.00041415,"MEAN_MOTION_DDOT":0},{"OBJECT_NAME":"HINODE (SOLAR-B)","OBJECT_ID":"2006-041A","EPOCH":"2026-02-21T00:19:40.816704","MEAN_MOTION":14.6844361,"ECCENTRICITY":0.00162739,"INCLINATION":98.0631,"RA_OF_ASC_NODE":69.8475,"ARG_OF_PERICENTER":298.8421,"MEAN_ANOMALY":61.1151,"EPHEMERIS_TYPE":0,"CLASSIFICATION_TYPE":"U","NORAD_CAT_ID":29479,"ELEMENT_SET_NO":999,"REV_AT_EPOCH":3782,"BSTAR":0.00011779444,"MEAN_MOTION_DOT":6.34e-06,"MEAN_MOTION_DDOT":0},{"OBJECT_NAME":"SHIJIAN-6 02A (SJ-6 02A)","OBJECT_ID":"2006-046A","EPOCH":"2026-02-21T06:30:52.022880","MEAN_MOTION":15.1542784,"ECCENTRICITY":0.000365,"INCLINATION":97.6519,"RA_OF_ASC_NODE":92.4951,"ARG_OF_PERICENTER":154.7067,"MEAN_ANOMALY":205.4345,"EPHEMERIS_TYPE":0,"CLASSIFICATION_TYPE":"U","NORAD_CAT_ID":29505,"ELEMENT_SET_NO":999,"REV_AT_EPOCH":5470,"BSTAR":0.00020237733,"MEAN_MOTION_DOT":3.756e-05,"MEAN_MOTION_DDOT":0},{"OBJECT_NAME":"SHIJIAN-6 02B (SJ-6 02B)","OBJECT_ID":"2006-046B","EPOCH":"2026-02-21T05:33:24.076224","MEAN_MOTION":15.00907606,"ECCENTRICITY":0.0014192,"INCLINATION":97.7025,"RA_OF_ASC_NODE":82.1041,"ARG_OF_PERICENTER":94.2234,"MEAN_ANOMALY":266.0612,"EPHEMERIS_TYPE":0,"CLASSIFICATION_TYPE":"U","NORAD_CAT_ID":29506,"ELEMENT_SET_NO":999,"REV_AT_EPOCH":5334,"BSTAR":0.00017770577,"MEAN_MOTION_DOT":2.207e-05,"MEAN_MOTION_DDOT":0},{"OBJECT_NAME":"FGRST (GLAST)","OBJECT_ID":"2008-029A","EPOCH":"2026-02-21T01:03:24.557472","MEAN_MOTION":15.23192424,"ECCENTRICITY":0.00087536,"INCLINATION":25.5823,"RA_OF_ASC_NODE":290.5051,"ARG_OF_PERICENTER":38.552,"MEAN_ANOMALY":321.5642,"EPHEMERIS_TYPE":0,"CLASSIFICATION_TYPE":"U","NORAD_CAT_ID":33053,"ELEMENT_SET_NO":999,"REV_AT_EPOCH":97810,"BSTAR":0.00013607729,"MEAN_MOTION_DOT":3.648e-05,"MEAN_MOTION_DDOT":0},{"OBJECT_NAME":"SDO","OBJECT_ID":"2010-005A","EPOCH":"2026-02-18T02:02:11.541120","MEAN_MOTION":1.00275964,"ECCENTRICITY":5.686e-05,"INCLINATION":34.398,"RA_OF_ASC_NODE":88.1509,"ARG_OF_PERICENTER":148.4244,"MEAN_ANOMALY":199.9931,"EPHEMERIS_TYPE":0,"CLASSIFICATION_TYPE":"U","NORAD_CAT_ID":36395,"ELEMENT_SET_NO":999,"REV_AT_EPOCH":5886,"BSTAR":0,"MEAN_MOTION_DOT":-5.9e-07,"MEAN_MOTION_DDOT":0},{"OBJECT_NAME":"CRYOSAT 2","OBJECT_ID":"2010-013A","EPOCH":"2026-02-21T05:26:47.823360","MEAN_MOTION":14.51901034,"ECCENTRICITY":0.00022536,"INCLINATION":92.022,"RA_OF_ASC_NODE":249.2141,"ARG_OF_PERICENTER":83.2107,"MEAN_ANOMALY":276.9356,"EPHEMERIS_TYPE":0,"CLASSIFICATION_TYPE":"U","NORAD_CAT_ID":36508,"ELEMENT_SET_NO":999,"REV_AT_EPOCH":84125,"BSTAR":7.62338e-05,"MEAN_MOTION_DOT":3.1e-06,"MEAN_MOTION_DDOT":0},{"OBJECT_NAME":"X-SAT","OBJECT_ID":"2011-015C","EPOCH":"2026-02-21T05:52:12.989856","MEAN_MOTION":14.25164407,"ECCENTRICITY":0.00135462,"INCLINATION":98.3403,"RA_OF_ASC_NODE":34.8628,"ARG_OF_PERICENTER":328.182,"MEAN_ANOMALY":31.8541,"EPHEMERIS_TYPE":0,"CLASSIFICATION_TYPE":"U","NORAD_CAT_ID":37389,"ELEMENT_SET_NO":999,"REV_AT_EPOCH":77116,"BSTAR":-4.127513e-06,"MEAN_MOTION_DOT":-5.1e-07,"MEAN_MOTION_DDOT":0},{"OBJECT_NAME":"GCOM-W1 (SHIZUKU)","OBJECT_ID":"2012-025A","EPOCH":"2026-02-20T20:15:21.941280","MEAN_MOTION":14.57070584,"ECCENTRICITY":0.0001592,"INCLINATION":98.2035,"RA_OF_ASC_NODE":354.16,"ARG_OF_PERICENTER":82.1486,"MEAN_ANOMALY":340.0132,"EPHEMERIS_TYPE":0,"CLASSIFICATION_TYPE":"U","NORAD_CAT_ID":38337,"ELEMENT_SET_NO":999,"REV_AT_EPOCH":73209,"BSTAR":0.00013722,"MEAN_MOTION_DOT":5.73e-06,"MEAN_MOTION_DDOT":0},{"OBJECT_NAME":"NUSTAR","OBJECT_ID":"2012-031A","EPOCH":"2026-02-21T06:00:02.000160","MEAN_MOTION":15.0746018,"ECCENTRICITY":0.00080876,"INCLINATION":6.0256,"RA_OF_ASC_NODE":182.9866,"ARG_OF_PERICENTER":192.3536,"MEAN_ANOMALY":133.4346,"EPHEMERIS_TYPE":0,"CLASSIFICATION_TYPE":"U","NORAD_CAT_ID":38358,"ELEMENT_SET_NO":999,"REV_AT_EPOCH":130,"BSTAR":0.00037035891,"MEAN_MOTION_DOT":6.636e-05,"MEAN_MOTION_DDOT":0},{"OBJECT_NAME":"NEOSSAT","OBJECT_ID":"2013-009D","EPOCH":"2026-02-21T02:38:24.542592","MEAN_MOTION":14.35775603,"ECCENTRICITY":0.00101412,"INCLINATION":98.4123,"RA_OF_ASC_NODE":234.9149,"ARG_OF_PERICENTER":228.5202,"MEAN_ANOMALY":131.5114,"EPHEMERIS_TYPE":0,"CLASSIFICATION_TYPE":"U","NORAD_CAT_ID":39089,"ELEMENT_SET_NO":999,"REV_AT_EPOCH":68008,"BSTAR":6.969417e-05,"MEAN_MOTION_DOT":1.59e-06,"MEAN_MOTION_DDOT":0},{"OBJECT_NAME":"BRITE-AUSTRIA","OBJECT_ID":"2013-009F","EPOCH":"2026-02-21T02:18:56.081952","MEAN_MOTION":14.36485149,"ECCENTRICITY":0.00094258,"INCLINATION":98.3938,"RA_OF_ASC_NODE":234.42,"ARG_OF_PERICENTER":222.0185,"MEAN_ANOMALY":138.028,"EPHEMERIS_TYPE":0,"CLASSIFICATION_TYPE":"U","NORAD_CAT_ID":39091,"ELEMENT_SET_NO":999,"REV_AT_EPOCH":68038,"BSTAR":8.2915992e-05,"MEAN_MOTION_DOT":2.01e-06,"MEAN_MOTION_DDOT":0},{"OBJECT_NAME":"IRIS","OBJECT_ID":"2013-033A","EPOCH":"2026-02-21T03:01:06.939264","MEAN_MOTION":14.85586526,"ECCENTRICITY":0.00241459,"INCLINATION":97.9399,"RA_OF_ASC_NODE":251.7228,"ARG_OF_PERICENTER":341.5663,"MEAN_ANOMALY":18.4675,"EPHEMERIS_TYPE":0,"CLASSIFICATION_TYPE":"U","NORAD_CAT_ID":39197,"ELEMENT_SET_NO":999,"REV_AT_EPOCH":68314,"BSTAR":0.0001596353,"MEAN_MOTION_DOT":1.332e-05,"MEAN_MOTION_DDOT":0},{"OBJECT_NAME":"HISAKI (SPRINT-A)","OBJECT_ID":"2013-049A","EPOCH":"2026-02-21T06:41:25.172448","MEAN_MOTION":13.55528963,"ECCENTRICITY":0.01367157,"INCLINATION":29.7195,"RA_OF_ASC_NODE":89.2874,"ARG_OF_PERICENTER":157.0876,"MEAN_ANOMALY":203.5865,"EPHEMERIS_TYPE":0,"CLASSIFICATION_TYPE":"U","NORAD_CAT_ID":39253,"ELEMENT_SET_NO":999,"REV_AT_EPOCH":61568,"BSTAR":5.5036194e-05,"MEAN_MOTION_DOT":1.06e-06,"MEAN_MOTION_DDOT":0},{"OBJECT_NAME":"CASSIOPE","OBJECT_ID":"2013-055A","EPOCH":"2026-02-21T04:58:38.438976","MEAN_MOTION":15.17384517,"ECCENTRICITY":0.0320703,"INCLINATION":80.9175,"RA_OF_ASC_NODE":206.7341,"ARG_OF_PERICENTER":91.1564,"MEAN_ANOMALY":272.6421,"EPHEMERIS_TYPE":0,"CLASSIFICATION_TYPE":"U","NORAD_CAT_ID":39265,"ELEMENT_SET_NO":999,"REV_AT_EPOCH":65003,"BSTAR":0.00051121811,"MEAN_MOTION_DOT":0.00041914,"MEAN_MOTION_DDOT":-5.95531e-07},{"OBJECT_NAME":"STSAT-3","OBJECT_ID":"2013-066G","EPOCH":"2026-02-21T05:23:00.095424","MEAN_MOTION":15.0195149,"ECCENTRICITY":0.00135471,"INCLINATION":97.6073,"RA_OF_ASC_NODE":24.17,"ARG_OF_PERICENTER":69.1298,"MEAN_ANOMALY":291.1376,"EPHEMERIS_TYPE":0,"CLASSIFICATION_TYPE":"U","NORAD_CAT_ID":39422,"ELEMENT_SET_NO":999,"REV_AT_EPOCH":66679,"BSTAR":0.0001112068,"MEAN_MOTION_DOT":1.398e-05,"MEAN_MOTION_DDOT":0},{"OBJECT_NAME":"SWARM B","OBJECT_ID":"2013-067A","EPOCH":"2026-02-21T05:28:58.645056","MEAN_MOTION":15.27679048,"ECCENTRICITY":0.00035423,"INCLINATION":87.747,"RA_OF_ASC_NODE":17.4756,"ARG_OF_PERICENTER":95.8937,"MEAN_ANOMALY":264.2715,"EPHEMERIS_TYPE":0,"CLASSIFICATION_TYPE":"U","NORAD_CAT_ID":39451,"ELEMENT_SET_NO":999,"REV_AT_EPOCH":66553,"BSTAR":0.00016907824,"MEAN_MOTION_DOT":4.605e-05,"MEAN_MOTION_DDOT":0}]